[{"OBJECT_NAME":"COSMOS 2532 (RODNIK-S 18)","OBJECT_ID":"2018-097C","EPOCH":"2026-03-09T22:25:40.338624","MEAN_MOTION":12.42905614,"ECCENTRICITY":0.00173426,"INCLINATION":82.5098,"RA_OF_ASC_NODE":283.7567,"ARG_OF_PERICENTER":274.4105,"MEAN_ANOMALY":85.4993,"EPHEMERIS_TYPE":0,"CLASSIFICATION_TYPE":"U","NORAD_CAT_ID":43753,"ELEMENT_SET_NO":999,"REV_AT_EPOCH":32994,"BSTAR":-0.0001937576,"MEAN_MOTION_DOT":-1.7e-7,"MEAN_MOTION_DDOT":0},{"OBJECT_NAME":"UNKNOWN","OBJECT_ID":"","EPOCH":"2026-03-08T13:20:52.940256","MEAN_MOTION":12.42204518,"ECCENTRICITY":0.00260007,"INCLINATION":73.6105,"RA_OF_ASC_NODE":165.3748,"ARG_OF_PERICENTER":350.313,"MEAN_ANOMALY":9.7409,"EPHEMERIS_TYPE":0,"CLASSIFICATION_TYPE":"U","NORAD_CAT_ID":270141,"ELEMENT_SET_NO":999,"REV_AT_EPOCH":28475,"BSTAR":0.00027802037,"MEAN_MOTION_DOT":2.1e-7,"MEAN_MOTION_DDOT":0}]
